{
  "type": "FeatureCollection",
  "features": [
    {
      "type": "Feature",
      "properties": {
        "norad_id": 50032,
        "name": "COSMOS 1408 DEB",
        "group": "cosmos-1408-debris",
        "lat": -64.37039197030647,
        "lon": 47.79075787503066,
        "alt_km": 432.8075464043386,
        "timestamp": "2025-12-07T18:50:16.986184+00:00",
        "meta_object_name": "COSMOS 1408 DEB",
        "meta_object_id": "1982-092RU",
        "meta_epoch": "2025-12-07T05:08:11.743584",
        "meta_mean_motion": 15.45610344,
        "meta_eccentricity": 0.00147981,
        "meta_inclination": 82.5646,
        "meta_ra_of_asc_node": 64.1721,
        "meta_arg_of_pericenter": 230.0224,
        "meta_mean_anomaly": 129.9726,
        "meta_ephemeris_type": 0,
        "meta_classification_type": "U",
        "meta_norad_cat_id": 50032,
        "meta_element_set_no": 999,
        "meta_rev_at_epoch": 22518,
        "meta_bstar": 0.00016383626,
        "meta_mean_motion_dot": 7.955e-05,
        "meta_mean_motion_ddot": 0,
        "tle_line1": "1 50032U 82092RU  25341.21402481  .00007955  00000+0  16384-3 0  9998",
        "tle_line2": "2 50032  82.5646  64.1721 0014798 230.0224 129.9726 15.45610344225183"
      },
      "geometry": {
        "type": "Point",
        "coordinates": [
          47.79075787503066,
          -64.37039197030647
        ]
      }
    },
    {
      "type": "Feature",
      "properties": {
        "norad_id": 50058,
        "name": "COSMOS 1408 DEB",
        "group": "cosmos-1408-debris",
        "lat": 7.8574802835317605,
        "lon": -106.50030525483906,
        "alt_km": 372.9066485992662,
        "timestamp": "2025-12-07T18:50:16.986206+00:00",
        "meta_object_name": "COSMOS 1408 DEB",
        "meta_object_id": "1982-092SW",
        "meta_epoch": "2025-12-06T23:40:31.712160",
        "meta_mean_motion": 15.636007,
        "meta_eccentricity": 0.00163199,
        "meta_inclination": 82.6134,
        "meta_ra_of_asc_node": 75.3606,
        "meta_arg_of_pericenter": 119.213,
        "meta_mean_anomaly": 241.0763,
        "meta_ephemeris_type": 0,
        "meta_classification_type": "U",
        "meta_norad_cat_id": 50058,
        "meta_element_set_no": 999,
        "meta_rev_at_epoch": 22714,
        "meta_bstar": 0.00046909944,
        "meta_mean_motion_dot": 0.00044,
        "meta_mean_motion_ddot": 0,
        "tle_line1": "1 50058U 82092SW  25340.98647815  .00044000  00000+0  46910-3 0  9991",
        "tle_line2": "2 50058  82.6134  75.3606 0016319 119.2130 241.0763 15.63600700227145"
      },
      "geometry": {
        "type": "Point",
        "coordinates": [
          -106.50030525483906,
          7.8574802835317605
        ]
      }
    },
    {
      "type": "Feature",
      "properties": {
        "norad_id": 50404,
        "name": "COSMOS 1408 DEB",
        "group": "cosmos-1408-debris",
        "lat": 76.0147282979185,
        "lon": 6.728026181579596,
        "alt_km": 568.4611475370311,
        "timestamp": "2025-12-07T18:50:16.986220+00:00",
        "meta_object_name": "COSMOS 1408 DEB",
        "meta_object_id": "1982-092ADS",
        "meta_epoch": "2025-12-07T02:30:04.868064",
        "meta_mean_motion": 15.12644059,
        "meta_eccentricity": 0.01742329,
        "meta_inclination": 82.204,
        "meta_ra_of_asc_node": 220.7981,
        "meta_arg_of_pericenter": 218.3563,
        "meta_mean_anomaly": 140.5177,
        "meta_ephemeris_type": 0,
        "meta_classification_type": "U",
        "meta_norad_cat_id": 50404,
        "meta_element_set_no": 999,
        "meta_rev_at_epoch": 21108,
        "meta_bstar": 0.0038217679,
        "meta_mean_motion_dot": 0.00098122,
        "meta_mean_motion_ddot": 0,
        "tle_line1": "1 50404U 82092ADS 25341.10422301  .00098122  00000+0  38218-2 0  9997",
        "tle_line2": "2 50404  82.2040 220.7981 0174232 218.3563 140.5177 15.12644059211081"
      },
      "geometry": {
        "type": "Point",
        "coordinates": [
          6.728026181579596,
          76.0147282979185
        ]
      }
    },
    {
      "type": "Feature",
      "properties": {
        "norad_id": 50621,
        "name": "COSMOS 1408 DEB",
        "group": "cosmos-1408-debris",
        "lat": -39.401748013654895,
        "lon": 73.18631280150385,
        "alt_km": 421.7484510921713,
        "timestamp": "2025-12-07T18:50:16.986231+00:00",
        "meta_object_name": "COSMOS 1408 DEB",
        "meta_object_id": "1982-092ALR",
        "meta_epoch": "2025-12-06T05:58:21.140256",
        "meta_mean_motion": 15.56160395,
        "meta_eccentricity": 0.00287722,
        "meta_inclination": 82.5723,
        "meta_ra_of_asc_node": 80.9361,
        "meta_arg_of_pericenter": 176.4358,
        "meta_mean_anomaly": 183.7108,
        "meta_ephemeris_type": 0,
        "meta_classification_type": "U",
        "meta_norad_cat_id": 50621,
        "meta_element_set_no": 999,
        "meta_rev_at_epoch": 22149,
        "meta_bstar": 0.00059401028,
        "meta_mean_motion_dot": 0.00042512,
        "meta_mean_motion_ddot": 0,
        "tle_line1": "1 50621U 82092ALR 25340.24885579  .00042512  00000+0  59401-3 0  9992",
        "tle_line2": "2 50621  82.5723  80.9361 0028772 176.4358 183.7108 15.56160395221497"
      },
      "geometry": {
        "type": "Point",
        "coordinates": [
          73.18631280150385,
          -39.401748013654895
        ]
      }
    }
  ]
}